{"epoch":1784799577,"count":18318,"objects":[{"id":"60492","name":"FLOCK 4BE 17","type":"PAYLOAD","l1":"1 60492U 24149AA  26203.49699160  .00018115  00000-0  44458-3 0  9992","l2":"2 60492  97.3759 287.1670 0004710 128.6100 231.5569 15.40737629107692"},{"id":"60494","name":"FLOCK 4BE 22","type":"PAYLOAD","l1":"1 60494U 24149AC  26203.18674087  .00035125  00000-0  81611-3 0  9993","l2":"2 60494  97.3719 287.1030 0005010 136.0439 224.1208 15.42256332107699"},{"id":"60495","name":"FLOCK 4BE 34","type":"PAYLOAD","l1":"1 60495U 24149AD  26203.20463739  .00017174  00000-0  40299-3 0  9998","l2":"2 60495  97.3768 287.9645 0005321 142.4699 217.6921 15.42104054107724"},{"id":"60497","name":"FLOCK 4BE 32","type":"PAYLOAD","l1":"1 60497U 24149AF  26203.53769397  .00019696  00000-0  44401-3 0  9995","l2":"2 60497  97.3707 287.8738 0005341 138.7534 221.4118 15.43275706107780"},{"id":"60501","name":"FLOCK 4BE 11","type":"PAYLOAD","l1":"1 60501U 24149AK  26203.90279192  .00021755  00000-0  47693-3 0  9996","l2":"2 60501  97.3685 288.5068 0005386 137.8585 222.3079 15.44086488107863"},{"id":"60505","name":"FLOCK 4BE 24","type":"PAYLOAD","l1":"1 60505U 24149AP  26203.49654231  .00022981  00000-0  49975-3 0  9992","l2":"2 60505  97.3697 288.3682 0005529 149.0508 211.1067 15.44314690107816"},{"id":"60509","name":"FLOCK 4BE 29","type":"PAYLOAD","l1":"1 60509U 24149AT  26203.67466623  .00049426  00000-0  10112-2 0  9995","l2":"2 60509  97.3794 290.1186 0004153 158.5472 201.5952 15.45958926107896"},{"id":"60511","name":"FLOCK 4BE 2","type":"PAYLOAD","l1":"1 60511U 24149AV  26203.20200233  .00077269  00000-0  10795-2 0  9993","l2":"2 60511  97.3818 291.5976 0005374 154.8830 205.2687 15.56583896107945"},{"id":"60512","name":"FLOCK 4BE 13","type":"PAYLOAD","l1":"1 60512U 24149AW  26203.83901711  .00016902  00000-0  38790-3 0  9995","l2":"2 60512  97.3709 288.6418 0005447 133.5468 226.6233 15.42773763107869"},{"id":"60513","name":"FLOCK 4BE 27","type":"PAYLOAD","l1":"1 60513U 24149AX  26203.53265599  .00010063  00000-0  29847-3 0  9995","l2":"2 60513  97.3815 285.4129 0004623 159.4506 200.6924 15.35011802107564"},{"id":"60514","name":"FLOCK 4BE 9","type":"PAYLOAD","l1":"1 60514U 24149AY  26203.66743901  .00017765  00000-0  42107-3 0  9998","l2":"2 60514  97.3781 288.3067 0004200 151.5618 208.5859 15.41798567107783"},{"id":"60516","name":"FLOCK 4BE 6","type":"PAYLOAD","l1":"1 60516U 24149BA  26203.20561256  .00016216  00000-0  40192-3 0  9993","l2":"2 60516  97.3775 287.1301 0004852 152.7998 207.3504 15.40460710107669"},{"id":"60517","name":"FLOCK 4BE 14","type":"PAYLOAD","l1":"1 60517U 24149BB  26203.22039920  .00019400  00000-0  45600-3 0  9991","l2":"2 60517  97.3680 287.3157 0005852 155.5318 204.6208 15.42022838107729"},{"id":"60518","name":"FLOCK 4BE 1","type":"PAYLOAD","l1":"1 60518U 24149BC  26203.19921221  .00020225  00000-0  44961-3 0  9998","l2":"2 60518  97.3766 288.6990 0005523 155.2226 204.9288 15.43687314107777"},{"id":"60519","name":"FLOCK 4BE 28","type":"PAYLOAD","l1":"1 60519U 24149BD  26203.47997701  .00049677  00000-0  98883-3 0  9990","l2":"2 60519  97.3732 289.8283 0005621 155.1494 205.0028 15.46753398107890"},{"id":"60559","name":"FLOCK 4BE 5","type":"PAYLOAD","l1":"1 60559U 24149CV  26203.87678789  .00017281  00000-0  41761-3 0  9999","l2":"2 60559  97.3833 288.2425 0004573 150.3575 209.7931 15.41217191107771"}]}