{"fetched_at":"2026-07-23T07:05:20.500Z","source":"https://celestrak.org/NORAD/elements/gp.php?GROUP=planet&FORMAT=JSON","constellation":"superdove","records":[{"OBJECT_NAME":"FLOCK 4BE-17","OBJECT_ID":"2024-149AA","EPOCH":"2026-07-22T11:55:40.074240","CLASSIFICATION_TYPE":"U","MEAN_MOTION":15.40737629,"ECCENTRICITY":0.00047104,"INCLINATION":97.3759,"RA_OF_ASC_NODE":287.167,"ARG_OF_PERICENTER":128.61,"MEAN_ANOMALY":231.5569,"EPHEMERIS_TYPE":0,"NORAD_CAT_ID":60492,"ELEMENT_SET_NO":999,"REV_AT_EPOCH":10769,"BSTAR":0.00044458004,"MEAN_MOTION_DOT":0.00018115,"MEAN_MOTION_DDOT":0},{"OBJECT_NAME":"FLOCK 4BE-22","OBJECT_ID":"2024-149AC","EPOCH":"2026-07-22T04:28:54.411168","CLASSIFICATION_TYPE":"U","MEAN_MOTION":15.42256332,"ECCENTRICITY":0.00050101,"INCLINATION":97.3719,"RA_OF_ASC_NODE":287.103,"ARG_OF_PERICENTER":136.0439,"MEAN_ANOMALY":224.1208,"EPHEMERIS_TYPE":0,"NORAD_CAT_ID":60494,"ELEMENT_SET_NO":999,"REV_AT_EPOCH":10769,"BSTAR":0.00081610555,"MEAN_MOTION_DOT":0.00035125,"MEAN_MOTION_DDOT":0},{"OBJECT_NAME":"FLOCK 4BE-34","OBJECT_ID":"2024-149AD","EPOCH":"2026-07-22T04:54:40.670496","CLASSIFICATION_TYPE":"U","MEAN_MOTION":15.42104054,"ECCENTRICITY":0.0005321,"INCLINATION":97.3768,"RA_OF_ASC_NODE":287.9645,"ARG_OF_PERICENTER":142.4699,"MEAN_ANOMALY":217.6921,"EPHEMERIS_TYPE":0,"NORAD_CAT_ID":60495,"ELEMENT_SET_NO":999,"REV_AT_EPOCH":10772,"BSTAR":0.0004029926,"MEAN_MOTION_DOT":0.00017174,"MEAN_MOTION_DDOT":0},{"OBJECT_NAME":"FLOCK 4BE-32","OBJECT_ID":"2024-149AF","EPOCH":"2026-07-22T12:54:16.759008","CLASSIFICATION_TYPE":"U","MEAN_MOTION":15.43275706,"ECCENTRICITY":0.00053414,"INCLINATION":97.3707,"RA_OF_ASC_NODE":287.8738,"ARG_OF_PERICENTER":138.7534,"MEAN_ANOMALY":221.4118,"EPHEMERIS_TYPE":0,"NORAD_CAT_ID":60497,"ELEMENT_SET_NO":999,"REV_AT_EPOCH":10778,"BSTAR":0.00044400936,"MEAN_MOTION_DOT":0.00019696,"MEAN_MOTION_DDOT":0},{"OBJECT_NAME":"FLOCK 4BE-11","OBJECT_ID":"2024-149AK","EPOCH":"2026-07-22T21:40:01.221888","CLASSIFICATION_TYPE":"U","MEAN_MOTION":15.44086488,"ECCENTRICITY":0.00053857,"INCLINATION":97.3685,"RA_OF_ASC_NODE":288.5068,"ARG_OF_PERICENTER":137.8585,"MEAN_ANOMALY":222.3079,"EPHEMERIS_TYPE":0,"NORAD_CAT_ID":60501,"ELEMENT_SET_NO":999,"REV_AT_EPOCH":10786,"BSTAR":0.00047693229,"MEAN_MOTION_DOT":0.00021755,"MEAN_MOTION_DDOT":0},{"OBJECT_NAME":"FLOCK 4BE-24","OBJECT_ID":"2024-149AP","EPOCH":"2026-07-22T11:55:01.255584","CLASSIFICATION_TYPE":"U","MEAN_MOTION":15.4431469,"ECCENTRICITY":0.00055289,"INCLINATION":97.3697,"RA_OF_ASC_NODE":288.3682,"ARG_OF_PERICENTER":149.0508,"MEAN_ANOMALY":211.1067,"EPHEMERIS_TYPE":0,"NORAD_CAT_ID":60505,"ELEMENT_SET_NO":999,"REV_AT_EPOCH":10781,"BSTAR":0.00049974555,"MEAN_MOTION_DOT":0.00022981,"MEAN_MOTION_DDOT":0},{"OBJECT_NAME":"FLOCK 4BE-29","OBJECT_ID":"2024-149AT","EPOCH":"2026-07-22T16:11:31.162272","CLASSIFICATION_TYPE":"U","MEAN_MOTION":15.45958926,"ECCENTRICITY":0.00041531,"INCLINATION":97.3794,"RA_OF_ASC_NODE":290.1186,"ARG_OF_PERICENTER":158.5472,"MEAN_ANOMALY":201.5952,"EPHEMERIS_TYPE":0,"NORAD_CAT_ID":60509,"ELEMENT_SET_NO":999,"REV_AT_EPOCH":10789,"BSTAR":0.0010112433,"MEAN_MOTION_DOT":0.00049426,"MEAN_MOTION_DDOT":0},{"OBJECT_NAME":"FLOCK 4BE-2","OBJECT_ID":"2024-149AV","EPOCH":"2026-07-22T04:50:53.001312","CLASSIFICATION_TYPE":"U","MEAN_MOTION":15.56583896,"ECCENTRICITY":0.00053744,"INCLINATION":97.3818,"RA_OF_ASC_NODE":291.5976,"ARG_OF_PERICENTER":154.883,"MEAN_ANOMALY":205.2687,"EPHEMERIS_TYPE":0,"NORAD_CAT_ID":60511,"ELEMENT_SET_NO":999,"REV_AT_EPOCH":10794,"BSTAR":0.0010795358,"MEAN_MOTION_DOT":0.00077269,"MEAN_MOTION_DDOT":0},{"OBJECT_NAME":"FLOCK 4BE-13","OBJECT_ID":"2024-149AW","EPOCH":"2026-07-22T20:08:11.078304","CLASSIFICATION_TYPE":"U","MEAN_MOTION":15.42773763,"ECCENTRICITY":0.00054469,"INCLINATION":97.3709,"RA_OF_ASC_NODE":288.6418,"ARG_OF_PERICENTER":133.5468,"MEAN_ANOMALY":226.6233,"EPHEMERIS_TYPE":0,"NORAD_CAT_ID":60512,"ELEMENT_SET_NO":999,"REV_AT_EPOCH":10786,"BSTAR":0.00038789858,"MEAN_MOTION_DOT":0.00016902,"MEAN_MOTION_DDOT":0},{"OBJECT_NAME":"FLOCK 4BE-27","OBJECT_ID":"2024-149AX","EPOCH":"2026-07-22T12:47:01.477536","CLASSIFICATION_TYPE":"U","MEAN_MOTION":15.35011802,"ECCENTRICITY":0.00046228,"INCLINATION":97.3815,"RA_OF_ASC_NODE":285.4129,"ARG_OF_PERICENTER":159.4506,"MEAN_ANOMALY":200.6924,"EPHEMERIS_TYPE":0,"NORAD_CAT_ID":60513,"ELEMENT_SET_NO":999,"REV_AT_EPOCH":10756,"BSTAR":0.00029847473,"MEAN_MOTION_DOT":0.00010063,"MEAN_MOTION_DDOT":0},{"OBJECT_NAME":"FLOCK 4BE-9","OBJECT_ID":"2024-149AY","EPOCH":"2026-07-22T16:01:06.730464","CLASSIFICATION_TYPE":"U","MEAN_MOTION":15.41798567,"ECCENTRICITY":0.00042001,"INCLINATION":97.3781,"RA_OF_ASC_NODE":288.3067,"ARG_OF_PERICENTER":151.5618,"MEAN_ANOMALY":208.5859,"EPHEMERIS_TYPE":0,"NORAD_CAT_ID":60514,"ELEMENT_SET_NO":999,"REV_AT_EPOCH":10778,"BSTAR":0.00042106654,"MEAN_MOTION_DOT":0.00017765,"MEAN_MOTION_DDOT":0},{"OBJECT_NAME":"FLOCK 4BE-6","OBJECT_ID":"2024-149BA","EPOCH":"2026-07-22T04:56:04.925184","CLASSIFICATION_TYPE":"U","MEAN_MOTION":15.4046071,"ECCENTRICITY":0.00048522,"INCLINATION":97.3775,"RA_OF_ASC_NODE":287.1301,"ARG_OF_PERICENTER":152.7998,"MEAN_ANOMALY":207.3504,"EPHEMERIS_TYPE":0,"NORAD_CAT_ID":60516,"ELEMENT_SET_NO":999,"REV_AT_EPOCH":10766,"BSTAR":0.00040192489,"MEAN_MOTION_DOT":0.00016216,"MEAN_MOTION_DDOT":0},{"OBJECT_NAME":"FLOCK 4BE-14","OBJECT_ID":"2024-149BB","EPOCH":"2026-07-22T05:17:22.490880","CLASSIFICATION_TYPE":"U","MEAN_MOTION":15.42022838,"ECCENTRICITY":0.00058517,"INCLINATION":97.368,"RA_OF_ASC_NODE":287.3157,"ARG_OF_PERICENTER":155.5318,"MEAN_ANOMALY":204.6208,"EPHEMERIS_TYPE":0,"NORAD_CAT_ID":60517,"ELEMENT_SET_NO":999,"REV_AT_EPOCH":10772,"BSTAR":0.00045600278,"MEAN_MOTION_DOT":0.000194,"MEAN_MOTION_DDOT":0},{"OBJECT_NAME":"FLOCK 4BE-1","OBJECT_ID":"2024-149BC","EPOCH":"2026-07-22T04:46:51.934944","CLASSIFICATION_TYPE":"U","MEAN_MOTION":15.43687314,"ECCENTRICITY":0.0005523,"INCLINATION":97.3766,"RA_OF_ASC_NODE":288.699,"ARG_OF_PERICENTER":155.2226,"MEAN_ANOMALY":204.9288,"EPHEMERIS_TYPE":0,"NORAD_CAT_ID":60518,"ELEMENT_SET_NO":999,"REV_AT_EPOCH":10777,"BSTAR":0.00044960789,"MEAN_MOTION_DOT":0.00020225,"MEAN_MOTION_DDOT":0},{"OBJECT_NAME":"FLOCK 4BE-28","OBJECT_ID":"2024-149BD","EPOCH":"2026-07-22T11:31:10.013664","CLASSIFICATION_TYPE":"U","MEAN_MOTION":15.46753398,"ECCENTRICITY":0.00056206,"INCLINATION":97.3732,"RA_OF_ASC_NODE":289.8283,"ARG_OF_PERICENTER":155.1494,"MEAN_ANOMALY":205.0028,"EPHEMERIS_TYPE":0,"NORAD_CAT_ID":60519,"ELEMENT_SET_NO":999,"REV_AT_EPOCH":10789,"BSTAR":0.00098882687,"MEAN_MOTION_DOT":0.00049677,"MEAN_MOTION_DDOT":0},{"OBJECT_NAME":"FLOCK 4BE-5","OBJECT_ID":"2024-149CV","EPOCH":"2026-07-22T21:02:34.473696","CLASSIFICATION_TYPE":"U","MEAN_MOTION":15.41217191,"ECCENTRICITY":0.00045731,"INCLINATION":97.3833,"RA_OF_ASC_NODE":288.2425,"ARG_OF_PERICENTER":150.3575,"MEAN_ANOMALY":209.7931,"EPHEMERIS_TYPE":0,"NORAD_CAT_ID":60559,"ELEMENT_SET_NO":999,"REV_AT_EPOCH":10777,"BSTAR":0.00041761386,"MEAN_MOTION_DOT":0.00017281,"MEAN_MOTION_DDOT":0}]}
